BEIDOU-2 IGSO-1         
1 36828U 10036A   26129.56207134 -.00000068  00000+0  00000+0 0  9998
2 36828  54.2946 163.3091 0058711 224.6236 148.8612  1.00281802 57711
BEIDOU-2 G4             
1 37210U 10057A   26131.55169559 -.00000099  00000+0  00000+0 0  9991
2 37210   3.5559  69.1461 0005518 212.0852 306.6960  1.00273014 56928
BEIDOU-2 IGSO-2         
1 37256U 10068A   26130.84100880 -.00000212  00000+0  00000+0 0  9993
2 37256  47.6210 272.2953 0054445 211.9481 153.0457  1.00295908 56429
BEIDOU-2 IGSO-3         
1 37384U 11013A   26130.65425413 -.00000191  00000+0  00000+0 0  9993
2 37384  62.3586  40.5091 0034052 186.6886 345.0519  1.00277511 55284
BEIDOU-2 IGSO-4         
1 37763U 11038A   26131.55698251  .00000061  00000+0  00000+0 0  9998
2 37763  54.6069 165.9997 0157933 230.6258 124.7084  1.00292322 54273
BEIDOU-2 IGSO-5         
1 37948U 11073A   26130.86101560 -.00000161  00000+0  00000+0 0  9999
2 37948  47.7495 272.0069 0111622 220.7011 138.6998  1.00257392 52764
BEIDOU-2 G5             
1 38091U 12008A   26131.54987580  .00000070  00000+0  00000+0 0  9996
2 38091   3.4822  69.9010 0011219 272.1057 143.9604  1.00271408 52002
BEIDOU-2 M3             
1 38250U 12018A   26128.45381045 -.00000038  00000+0  00000+0 0  9999
2 38250  55.7928 306.2139 0019668 277.1817  82.5892  1.86230179 95200
BEIDOU-2 M4             
1 38251U 12018B   26128.92300840 -.00000036  00000+0  00000+0 0  9994
2 38251  55.6931 305.4151 0010883 282.3733  77.4996  1.86229854 95211
BEIDOU-2 M6             
1 38775U 12050B   26130.24374730 -.00000020  00000+0  00000+0 0  9991
2 38775  56.5127  64.1487 0014362 350.9145   9.0489  1.86230951 92603
BEIDOU-2 G6             
1 38953U 12059A   26131.41231536 -.00000163  00000+0  00000+0 0  9992
2 38953   4.3282  73.9020 0010723 320.2921  67.5141  1.00272745 49546
BEIDOU-3S IGSO-1S       
1 40549U 15019A   26131.41456870 -.00000166  00000+0  00000+0 0  9998
2 40549  49.2668 295.9034 0037624 190.3014 346.4531  1.00258447 40709
BEIDOU-3S M2S           
1 40748U 15037A   26128.58906300 -.00000037  00000+0  00000+0 0  9998
2 40748  54.9079 303.4092 0007455 268.2126  91.6939  1.86232348 73383
BEIDOU-3S M1S           
1 40749U 15037B   26130.94885044 -.00000036  00000+0  00000+0 0  9992
2 40749  54.9016 303.3156 0004165  55.4984 304.5348  1.86254910 73433
BEIDOU-3S IGSO-2S       
1 40938U 15053A   26130.82802905 -.00000159  00000+0  00000+0 0  9998
2 40938  49.2829 259.2269 0063944 190.8848 173.1930  1.00268251 38986
BEIDOU-2 IGSO-6         
1 41434U 16021A   26130.81093911 -.00000161  00000+0  00000+0 0  9997
2 41434  60.1758  38.4133 0057601 232.5923 344.2448  1.00266275 37101
BEIDOU-2 G7             
1 41586U 16037A   26131.48887845 -.00000341  00000+0  00000+0 0  9993
2 41586   1.6288  68.9586 0007699 357.6567  89.2480  1.00271236  6529
BEIDOU-3 M1             
1 43001U 17069A   26131.08303808 -.00000022  00000+0  00000+0 0  9997
2 43001  56.6611  64.3071 0011735 319.7132  40.1880  1.86231420 57919
BEIDOU-3 M2             
1 43002U 17069B   26128.33767399 -.00000020  00000+0  00000+0 0  9999
2 43002  56.6766  64.4251 0022120  73.1957 287.0348  1.86210859 57855
BEIDOU-3 M7             
1 43107U 18003A   26129.68939610 -.00000037  00000+0  00000+0 0  9998
2 43107  54.3635 303.6569 0005256  84.2637 275.7902  1.86228381 56634
BEIDOU-3 M8             
1 43108U 18003B   26131.24561880 -.00000039  00000+0  00000+0 0  9996
2 43108  54.3551 303.5848 0002137 279.4150  80.5545  1.86231301 56679
BEIDOU-3 M4             
1 43207U 18018A   26131.15131604 -.00000022  00000+0  00000+0 0  9991
2 43207  56.6202  64.3701 0007751   5.9408 354.0562  1.86231364 56051
BEIDOU-3 M3             
1 43208U 18018B   26131.21777272 -.00000022  00000+0  00000+0 0  9996
2 43208  56.6194  64.3718 0009643 332.4369  27.4998  1.86231284 56051
BEIDOU-3 M9             
1 43245U 18029A   26131.43542142 -.00000038  00000+0  00000+0 0  9996
2 43245  54.2290 301.2342 0000814 100.4539 259.5462  1.86228428 55219
BEIDOU-3 M10            
1 43246U 18029B   26130.83301457 -.00000037  00000+0  00000+0 0  9991
2 43246  54.2269 301.2814 0004634  36.1850 323.8380  1.86229419 55186
BEIDOU-2 IGSO-7         
1 43539U 18057A   26130.51871762 -.00000011  00000+0  00000+0 0  9995
2 43539  55.1875 163.3876 0104003 237.7354 126.1724  1.00262765 28754
BEIDOU-3 M5             
1 43581U 18062A   26131.05721493  .00000064  00000+0  00000+0 0  9990
2 43581  54.0834 183.5668 0004816 288.0350  71.9915  1.86229011 52941
BEIDOU-3 M6             
1 43582U 18062B   26129.30962619  .00000044  00000+0  00000+0 0  9991
2 43582  54.0831 183.6153 0004808  18.9796 341.1148  1.86227992 52917
BEIDOU-3 M12            
1 43602U 18067A   26129.24802271  .00000046  00000+0  00000+0 0  9991
2 43602  54.1783 182.3610 0007840  32.7480 327.3771  1.86227965 52394
BEIDOU-3 M11            
1 43603U 18067B   26130.45689292  .00000059  00000+0  00000+0 0  9997
2 43603  54.1758 182.2838 0004442  18.1454 341.9481  1.86227411 52444
BEIDOU-3 M13            
1 43622U 18072A   26130.94890905 -.00000023  00000+0  00000+0 0  9995
2 43622  56.5933  63.8882 0008403 321.3324  38.5963  1.86231549 51962
